{
  "type": "FeatureCollection",
  "features": [
    {
      "type": "Feature",
      "properties": {
        "norad_id": 66962,
        "name": "STARLINK-35874",
        "group": "last-30-days",
        "lat": 33.099874195737726,
        "lon": 150.08504352703736,
        "alt_km": 340.176055617545,
        "timestamp": "2025-12-22T18:58:52.140862+00:00",
        "meta_object_name": "STARLINK-35874",
        "meta_object_id": "2025-288D",
        "meta_epoch": "2025-12-22T06:00:02.000160",
        "meta_mean_motion": 15.75152205,
        "meta_eccentricity": 0.00016327,
        "meta_inclination": 43.0004,
        "meta_ra_of_asc_node": 108.975,
        "meta_arg_of_pericenter": 282.9973,
        "meta_mean_anomaly": 299.7545,
        "meta_ephemeris_type": 0,
        "meta_classification_type": "U",
        "meta_norad_cat_id": 66962,
        "meta_element_set_no": 999,
        "meta_rev_at_epoch": 336,
        "meta_bstar": -0.0012586109,
        "meta_mean_motion_dot": -0.00190458,
        "meta_mean_motion_ddot": 0,
        "tle_line1": "1 66962U 25288D   25356.25002315 -.00190458  00000+0 -12586-2 0  9995",
        "tle_line2": "2 66962  43.0004 108.9750 0001632 282.9973 299.7545 15.75152205  3360"
      },
      "geometry": {
        "type": "Point",
        "coordinates": [
          150.08504352703736,
          33.099874195737726
        ]
      }
    },
    {
      "type": "Feature",
      "properties": {
        "norad_id": 66963,
        "name": "STARLINK-36133",
        "group": "last-30-days",
        "lat": 34.022457069629276,
        "lon": 152.11157650247344,
        "alt_km": 340.1344858303537,
        "timestamp": "2025-12-22T18:58:52.140876+00:00",
        "meta_object_name": "STARLINK-36133",
        "meta_object_id": "2025-288E",
        "meta_epoch": "2025-12-22T06:00:02.000160",
        "meta_mean_motion": 15.75128018,
        "meta_eccentricity": 0.00016377,
        "meta_inclination": 43.0004,
        "meta_ra_of_asc_node": 108.9704,
        "meta_arg_of_pericenter": 274.543,
        "meta_mean_anomaly": 310.1444,
        "meta_ephemeris_type": 0,
        "meta_classification_type": "U",
        "meta_norad_cat_id": 66963,
        "meta_element_set_no": 999,
        "meta_rev_at_epoch": 336,
        "meta_bstar": -0.0010168763,
        "meta_mean_motion_dot": -0.00154457,
        "meta_mean_motion_ddot": 0,
        "tle_line1": "1 66963U 25288E   25356.25002315 -.00154457  00000+0 -10169-2 0  9990",
        "tle_line2": "2 66963  43.0004 108.9704 0001637 274.5430 310.1444 15.75128018  3361"
      },
      "geometry": {
        "type": "Point",
        "coordinates": [
          152.11157650247344,
          34.022457069629276
        ]
      }
    },
    {
      "type": "Feature",
      "properties": {
        "norad_id": 66964,
        "name": "STARLINK-36104",
        "group": "last-30-days",
        "lat": 34.903975822544794,
        "lon": 154.16484526730474,
        "alt_km": 339.91973807115755,
        "timestamp": "2025-12-22T18:58:52.140888+00:00",
        "meta_object_name": "STARLINK-36104",
        "meta_object_id": "2025-288F",
        "meta_epoch": "2025-12-22T06:00:02.000160",
        "meta_mean_motion": 15.75052434,
        "meta_eccentricity": 0.0001531,
        "meta_inclination": 43.0003,
        "meta_ra_of_asc_node": 108.9652,
        "meta_arg_of_pericenter": 264.4098,
        "meta_mean_anomaly": 322.2182,
        "meta_ephemeris_type": 0,
        "meta_classification_type": "U",
        "meta_norad_cat_id": 66964,
        "meta_element_set_no": 999,
        "meta_rev_at_epoch": 336,
        "meta_bstar": -0.0002707469,
        "meta_mean_motion_dot": -0.00041885,
        "meta_mean_motion_ddot": 0,
        "tle_line1": "1 66964U 25288F   25356.25002315 -.00041885  00000+0 -27075-3 0  9996",
        "tle_line2": "2 66964  43.0003 108.9652 0001531 264.4098 322.2182 15.75052434  3365"
      },
      "geometry": {
        "type": "Point",
        "coordinates": [
          154.16484526730474,
          34.903975822544794
        ]
      }
    },
    {
      "type": "Feature",
      "properties": {
        "norad_id": 66965,
        "name": "STARLINK-36067",
        "group": "last-30-days",
        "lat": 35.75823016465923,
        "lon": 156.28299243181186,
        "alt_km": 339.52277380819487,
        "timestamp": "2025-12-22T18:58:52.140899+00:00",
        "meta_object_name": "STARLINK-36067",
        "meta_object_id": "2025-288G",
        "meta_epoch": "2025-12-22T06:00:02.000160",
        "meta_mean_motion": 15.75037005,
        "meta_eccentricity": 0.00012568,
        "meta_inclination": 43.0005,
        "meta_ra_of_asc_node": 108.9609,
        "meta_arg_of_pericenter": 272.1242,
        "meta_mean_anomaly": 316.4309,
        "meta_ephemeris_type": 0,
        "meta_classification_type": "U",
        "meta_norad_cat_id": 66965,
        "meta_element_set_no": 999,
        "meta_rev_at_epoch": 336,
        "meta_bstar": -7.3929329e-05,
        "meta_mean_motion_dot": -0.00011816,
        "meta_mean_motion_ddot": 0,
        "tle_line1": "1 66965U 25288G   25356.25002315 -.00011816  00000+0 -73929-4 0  9998",
        "tle_line2": "2 66965  43.0005 108.9609 0001256 272.1242 316.4309 15.75037005  3364"
      },
      "geometry": {
        "type": "Point",
        "coordinates": [
          156.28299243181186,
          35.75823016465923
        ]
      }
    },
    {
      "type": "Feature",
      "properties": {
        "norad_id": 66966,
        "name": "STARLINK-36139",
        "group": "last-30-days",
        "lat": 36.57677153096938,
        "lon": 158.45202628352087,
        "alt_km": 339.8280650462166,
        "timestamp": "2025-12-22T18:58:52.140909+00:00",
        "meta_object_name": "STARLINK-36139",
        "meta_object_id": "2025-288H",
        "meta_epoch": "2025-12-22T06:00:02.000160",
        "meta_mean_motion": 15.74984031,
        "meta_eccentricity": 0.00020939,
        "meta_inclination": 43.0006,
        "meta_ra_of_asc_node": 108.9557,
        "meta_arg_of_pericenter": 262.9634,
        "meta_mean_anomaly": 327.5283,
        "meta_ephemeris_type": 0,
        "meta_classification_type": "U",
        "meta_norad_cat_id": 66966,
        "meta_element_set_no": 999,
        "meta_rev_at_epoch": 336,
        "meta_bstar": 0.00054057717,
        "meta_mean_motion_dot": 0.00083185,
        "meta_mean_motion_ddot": 0,
        "tle_line1": "1 66966U 25288H   25356.25002315  .00083185  00000+0  54058-3 0  9996",
        "tle_line2": "2 66966  43.0006 108.9557 0002093 262.9634 327.5283 15.74984031  3363"
      },
      "geometry": {
        "type": "Point",
        "coordinates": [
          158.45202628352087,
          36.57677153096938
        ]
      }
    },
    {
      "type": "Feature",
      "properties": {
        "norad_id": 66967,
        "name": "STARLINK-36136",
        "group": "last-30-days",
        "lat": 37.353028424135566,
        "lon": 160.66172871221715,
        "alt_km": 339.75199142944075,
        "timestamp": "2025-12-22T18:58:52.140921+00:00",
        "meta_object_name": "STARLINK-36136",
        "meta_object_id": "2025-288J",
        "meta_epoch": "2025-12-22T06:00:02.000160",
        "meta_mean_motion": 15.75011633,
        "meta_eccentricity": 0.00020404,
        "meta_inclination": 43.0004,
        "meta_ra_of_asc_node": 108.9508,
        "meta_arg_of_pericenter": 260.8802,
        "meta_mean_anomaly": 331.5278,
        "meta_ephemeris_type": 0,
        "meta_classification_type": "U",
        "meta_norad_cat_id": 66967,
        "meta_element_set_no": 999,
        "meta_rev_at_epoch": 336,
        "meta_bstar": 0.00030070417,
        "meta_mean_motion_dot": 0.00045911,
        "meta_mean_motion_ddot": 0,
        "tle_line1": "1 66967U 25288J   25356.25002315  .00045911  00000+0  30070-3 0  9990",
        "tle_line2": "2 66967  43.0004 108.9508 0002040 260.8802 331.5278 15.75011633  3363"
      },
      "geometry": {
        "type": "Point",
        "coordinates": [
          160.66172871221715,
          37.353028424135566
        ]
      }
    },
    {
      "type": "Feature",
      "properties": {
        "norad_id": 66968,
        "name": "STARLINK-36152",
        "group": "last-30-days",
        "lat": 38.07773106674195,
        "lon": 162.88607986163532,
        "alt_km": 339.37896589072443,
        "timestamp": "2025-12-22T18:58:52.140931+00:00",
        "meta_object_name": "STARLINK-36152",
        "meta_object_id": "2025-288K",
        "meta_epoch": "2025-12-22T06:00:02.000160",
        "meta_mean_motion": 15.7499642,
        "meta_eccentricity": 0.00016421,
        "meta_inclination": 43.0003,
        "meta_ra_of_asc_node": 108.9459,
        "meta_arg_of_pericenter": 266.3748,
        "meta_mean_anomaly": 327.9591,
        "meta_ephemeris_type": 0,
        "meta_classification_type": "U",
        "meta_norad_cat_id": 66968,
        "meta_element_set_no": 999,
        "meta_rev_at_epoch": 336,
        "meta_bstar": 0.00035295314,
        "meta_mean_motion_dot": 0.00053986,
        "meta_mean_motion_ddot": 0,
        "tle_line1": "1 66968U 25288K   25356.25002315  .00053986  00000+0  35295-3 0  9996",
        "tle_line2": "2 66968  43.0003 108.9459 0001642 266.3748 327.9591 15.74996420  3367"
      },
      "geometry": {
        "type": "Point",
        "coordinates": [
          162.88607986163532,
          38.07773106674195
        ]
      }
    }
  ]
}